[Satellite]
VERSION=1.1
NAME=METEOSAT-9 (MSG-2)
NICKNAME=METEOSAT-9 (MSG-2)
TLE1=1 28912U 05049B   22340.91472587  .00000136  00000+0  00000+0 0  9992
TLE2=2 28912   6.4105  65.1507 0001825 193.6370 191.9523  1.00277733 62120
STATUS=0
